CCSDS_OMM_VERS = 2.0
CREATION_DATE  = 
ORIGINATOR     = 

OBJECT_NAME    = SL-8 R/B
OBJECT_ID      = 1985-006B
CENTER_NAME    = EARTH
REF_FRAME      = TEME
TIME_SYSTEM    = UTC
MEAN_ELEMENT_THEORY = SGP/SGP4

EPOCH          = 2026-03-01T01:11:15.586944
MEAN_MOTION    = 14.37777098
ECCENTRICITY   = .0018807
INCLINATION    = 74.0436
RA_OF_ASC_NODE = 277.0485
ARG_OF_PERICENTER = 196.7376
MEAN_ANOMALY   = 324.7817

EPHEMERIS_TYPE = 0
CLASSIFICATION_TYPE = U
NORAD_CAT_ID   = 15483
ELEMENT_SET_NO = 999
REV_AT_EPOCH   = 15278
BSTAR          = .67733E-4
MEAN_MOTION_DOT = .178E-5
MEAN_MOTION_DDOT = 0

CCSDS_OMM_VERS = 2.0
CREATION_DATE  = 
ORIGINATOR     = 

OBJECT_NAME    = SL-12 R/B(2)
OBJECT_ID      = 1985-042D
CENTER_NAME    = EARTH
REF_FRAME      = TEME
TIME_SYSTEM    = UTC
MEAN_ELEMENT_THEORY = SGP/SGP4

EPOCH          = 2026-03-01T04:21:32.220288
MEAN_MOTION    = 14.21979782
ECCENTRICITY   = .0033666
INCLINATION    = 71.1067
RA_OF_ASC_NODE = 105.7054
ARG_OF_PERICENTER = 142.0380
MEAN_ANOMALY   = 275.4414

EPHEMERIS_TYPE = 0
CLASSIFICATION_TYPE = U
NORAD_CAT_ID   = 15772
ELEMENT_SET_NO = 999
REV_AT_EPOCH   = 11318
BSTAR          = .76051E-4
MEAN_MOTION_DOT = .121E-5
MEAN_MOTION_DDOT = 0

CCSDS_OMM_VERS = 2.0
CREATION_DATE  = 
ORIGINATOR     = 

OBJECT_NAME    = SL-14 R/B
OBJECT_ID      = 1985-069B
CENTER_NAME    = EARTH
REF_FRAME      = TEME
TIME_SYSTEM    = UTC
MEAN_ELEMENT_THEORY = SGP/SGP4

EPOCH          = 2026-02-28T23:51:22.019040
MEAN_MOTION    = 14.86420907
ECCENTRICITY   = .0017728
INCLINATION    = 82.5266
RA_OF_ASC_NODE = 33.1094
ARG_OF_PERICENTER = 217.4443
MEAN_ANOMALY   = 142.5540

EPHEMERIS_TYPE = 0
CLASSIFICATION_TYPE = U
NORAD_CAT_ID   = 15945
ELEMENT_SET_NO = 999
REV_AT_EPOCH   = 17154
BSTAR          = .67464E-4
MEAN_MOTION_DOT = .621E-5
MEAN_MOTION_DDOT = 0

CCSDS_OMM_VERS = 2.0
CREATION_DATE  = 
ORIGINATOR     = 

OBJECT_NAME    = SL-16 R/B
OBJECT_ID      = 1985-097B
CENTER_NAME    = EARTH
REF_FRAME      = TEME
TIME_SYSTEM    = UTC
MEAN_ELEMENT_THEORY = SGP/SGP4

EPOCH          = 2026-02-28T17:55:04.353024
MEAN_MOTION    = 14.16598980
ECCENTRICITY   = .00098301
INCLINATION    = 71.0037
RA_OF_ASC_NODE = 159.3805
ARG_OF_PERICENTER = 269.9804
MEAN_ANOMALY   = 203.3024

EPHEMERIS_TYPE = 0
CLASSIFICATION_TYPE = U
NORAD_CAT_ID   = 16182
ELEMENT_SET_NO = 999
REV_AT_EPOCH   = 8596
BSTAR          = .85334034E-4
MEAN_MOTION_DOT = .122E-5
MEAN_MOTION_DDOT = 0

CCSDS_OMM_VERS = 2.0
CREATION_DATE  = 
ORIGINATOR     = 

OBJECT_NAME    = SL-14 R/B
OBJECT_ID      = 1986-006B
CENTER_NAME    = EARTH
REF_FRAME      = TEME
TIME_SYSTEM    = UTC
MEAN_ELEMENT_THEORY = SGP/SGP4

EPOCH          = 2026-03-01T00:58:30.884736
MEAN_MOTION    = 14.86801527
ECCENTRICITY   = .0075281
INCLINATION    = 82.5236
RA_OF_ASC_NODE = 267.8795
ARG_OF_PERICENTER = 302.0414
MEAN_ANOMALY   = 57.3504

EPHEMERIS_TYPE = 0
CLASSIFICATION_TYPE = U
NORAD_CAT_ID   = 16496
ELEMENT_SET_NO = 999
REV_AT_EPOCH   = 14792
BSTAR          = .68144E-4
MEAN_MOTION_DOT = .664E-5
MEAN_MOTION_DDOT = 0

CCSDS_OMM_VERS = 2.0
CREATION_DATE  = 
ORIGINATOR     = 

OBJECT_NAME    = COSMOS 1743
OBJECT_ID      = 1986-034A
CENTER_NAME    = EARTH
REF_FRAME      = TEME
TIME_SYSTEM    = UTC
MEAN_ELEMENT_THEORY = SGP/SGP4

EPOCH          = 2026-03-01T00:52:50.096352
MEAN_MOTION    = 15.57843772
ECCENTRICITY   = .0002644
INCLINATION    = 82.5302
RA_OF_ASC_NODE = 82.9088
ARG_OF_PERICENTER = 347.5219
MEAN_ANOMALY   = 12.5970

EPHEMERIS_TYPE = 0
CLASSIFICATION_TYPE = U
NORAD_CAT_ID   = 16719
ELEMENT_SET_NO = 999
REV_AT_EPOCH   = 17890
BSTAR          = .44848E-3
MEAN_MOTION_DOT = .33508E-3
MEAN_MOTION_DDOT = 0

CCSDS_OMM_VERS = 2.0
CREATION_DATE  = 
ORIGINATOR     = 

OBJECT_NAME    = SL-14 R/B
OBJECT_ID      = 1986-046B
CENTER_NAME    = EARTH
REF_FRAME      = TEME
TIME_SYSTEM    = UTC
MEAN_ELEMENT_THEORY = SGP/SGP4

EPOCH          = 2026-03-01T04:27:38.012832
MEAN_MOTION    = 14.85580505
ECCENTRICITY   = .0021573
INCLINATION    = 82.4786
RA_OF_ASC_NODE = 88.2195
ARG_OF_PERICENTER = 255.1382
MEAN_ANOMALY   = 104.7445

EPHEMERIS_TYPE = 0
CLASSIFICATION_TYPE = U
NORAD_CAT_ID   = 16792
ELEMENT_SET_NO = 999
REV_AT_EPOCH   = 12514
BSTAR          = .5482E-4
MEAN_MOTION_DOT = .5E-5
MEAN_MOTION_DDOT = 0

CCSDS_OMM_VERS = 2.0
CREATION_DATE  = 
ORIGINATOR     = 

OBJECT_NAME    = SL-14 R/B
OBJECT_ID      = 1986-055B
CENTER_NAME    = EARTH
REF_FRAME      = TEME
TIME_SYSTEM    = UTC
MEAN_ELEMENT_THEORY = SGP/SGP4

EPOCH          = 2026-03-01T04:13:08.444352
MEAN_MOTION    = 14.85633279
ECCENTRICITY   = .0018934
INCLINATION    = 82.5217
RA_OF_ASC_NODE = 134.6758
ARG_OF_PERICENTER = 5.1666
MEAN_ANOMALY   = 24.3637

EPHEMERIS_TYPE = 0
CLASSIFICATION_TYPE = U
NORAD_CAT_ID   = 16882
ELEMENT_SET_NO = 999
REV_AT_EPOCH   = 11810
BSTAR          = .54329E-4
MEAN_MOTION_DOT = .496E-5
MEAN_MOTION_DDOT = 0

CCSDS_OMM_VERS = 2.0
CREATION_DATE  = 
ORIGINATOR     = 

OBJECT_NAME    = AJISAI (EGS)
OBJECT_ID      = 1986-061A
CENTER_NAME    = EARTH
REF_FRAME      = TEME
TIME_SYSTEM    = UTC
MEAN_ELEMENT_THEORY = SGP/SGP4

EPOCH          = 2026-03-01T04:42:05.893920
MEAN_MOTION    = 12.44515508
ECCENTRICITY   = .0011245
INCLINATION    = 50.0081
RA_OF_ASC_NODE = 119.4669
ARG_OF_PERICENTER = 265.1322
MEAN_ANOMALY   = 132.5681

EPHEMERIS_TYPE = 0
CLASSIFICATION_TYPE = U
NORAD_CAT_ID   = 16908
ELEMENT_SET_NO = 999
REV_AT_EPOCH   = 46694
BSTAR          = .98052E-4
MEAN_MOTION_DOT = -.83E-6
MEAN_MOTION_DDOT = 0

CCSDS_OMM_VERS = 2.0
CREATION_DATE  = 
ORIGINATOR     = 

OBJECT_NAME    = COSMOS 1812
OBJECT_ID      = 1987-003A
CENTER_NAME    = EARTH
REF_FRAME      = TEME
TIME_SYSTEM    = UTC
MEAN_ELEMENT_THEORY = SGP/SGP4

EPOCH          = 2026-03-01T02:03:09.689184
MEAN_MOTION    = 16.16461233
ECCENTRICITY   = .0006192
INCLINATION    = 82.4736
RA_OF_ASC_NODE = 205.4843
ARG_OF_PERICENTER = 288.5601
MEAN_ANOMALY   = 71.5013

EPHEMERIS_TYPE = 0
CLASSIFICATION_TYPE = U
NORAD_CAT_ID   = 17295
ELEMENT_SET_NO = 999
REV_AT_EPOCH   = 14309
BSTAR          = .81083E-3
MEAN_MOTION_DOT = .1151834E-1
MEAN_MOTION_DDOT = .95835E-3

CCSDS_OMM_VERS = 2.0
CREATION_DATE  = 
ORIGINATOR     = 

OBJECT_NAME    = SL-14 R/B
OBJECT_ID      = 1987-024B
CENTER_NAME    = EARTH
REF_FRAME      = TEME
TIME_SYSTEM    = UTC
MEAN_ELEMENT_THEORY = SGP/SGP4

EPOCH          = 2026-03-01T03:43:14.767392
MEAN_MOTION    = 14.86122458
ECCENTRICITY   = .0016735
INCLINATION    = 82.5255
RA_OF_ASC_NODE = 100.7873
ARG_OF_PERICENTER = 290.7929
MEAN_ANOMALY   = 69.1494

EPHEMERIS_TYPE = 0
CLASSIFICATION_TYPE = U
NORAD_CAT_ID   = 17567
ELEMENT_SET_NO = 999
REV_AT_EPOCH   = 8686
BSTAR          = .50373E-4
MEAN_MOTION_DOT = .466E-5
MEAN_MOTION_DDOT = 0

CCSDS_OMM_VERS = 2.0
CREATION_DATE  = 
ORIGINATOR     = 

OBJECT_NAME    = COSMOS 1833
OBJECT_ID      = 1987-027A
CENTER_NAME    = EARTH
REF_FRAME      = TEME
TIME_SYSTEM    = UTC
MEAN_ELEMENT_THEORY = SGP/SGP4

EPOCH          = 2026-03-01T03:40:32.793312
MEAN_MOTION    = 14.13056465
ECCENTRICITY   = .0024631
INCLINATION    = 70.9233
RA_OF_ASC_NODE = 343.9587
ARG_OF_PERICENTER = 226.2948
MEAN_ANOMALY   = 133.6133

EPHEMERIS_TYPE = 0
CLASSIFICATION_TYPE = U
NORAD_CAT_ID   = 17589
ELEMENT_SET_NO = 999
REV_AT_EPOCH   = 911
BSTAR          = -.42721E-4
MEAN_MOTION_DOT = -.128E-5
MEAN_MOTION_DDOT = 0

CCSDS_OMM_VERS = 2.0
CREATION_DATE  = 
ORIGINATOR     = 

OBJECT_NAME    = SL-16 R/B
OBJECT_ID      = 1987-027B
CENTER_NAME    = EARTH
REF_FRAME      = TEME
TIME_SYSTEM    = UTC
MEAN_ELEMENT_THEORY = SGP/SGP4

EPOCH          = 2026-03-01T01:56:36.532896
MEAN_MOTION    = 14.17166961
ECCENTRICITY   = .0003837
INCLINATION    = 71.0023
RA_OF_ASC_NODE = 294.6369
ARG_OF_PERICENTER = 160.4825
MEAN_ANOMALY   = 199.6446

EPHEMERIS_TYPE = 0
CLASSIFICATION_TYPE = U
NORAD_CAT_ID   = 17590
ELEMENT_SET_NO = 999
REV_AT_EPOCH   = 1412
BSTAR          = -.54214E-4
MEAN_MOTION_DOT = -.157E-5
MEAN_MOTION_DDOT = 0

CCSDS_OMM_VERS = 2.0
CREATION_DATE  = 
ORIGINATOR     = 

OBJECT_NAME    = SL-14 R/B
OBJECT_ID      = 1987-038B
CENTER_NAME    = EARTH
REF_FRAME      = TEME
TIME_SYSTEM    = UTC
MEAN_ELEMENT_THEORY = SGP/SGP4

EPOCH          = 2026-03-01T03:29:40.780032
MEAN_MOTION    = 14.85360254
ECCENTRICITY   = .0018936
INCLINATION    = 82.5018
RA_OF_ASC_NODE = 304.8566
ARG_OF_PERICENTER = 188.4323
MEAN_ANOMALY   = 171.6578

EPHEMERIS_TYPE = 0
CLASSIFICATION_TYPE = U
NORAD_CAT_ID   = 17912
ELEMENT_SET_NO = 999
REV_AT_EPOCH   = 7796
BSTAR          = .5382E-4
MEAN_MOTION_DOT = .488E-5
MEAN_MOTION_DDOT = 0

CCSDS_OMM_VERS = 2.0
CREATION_DATE  = 
ORIGINATOR     = 

OBJECT_NAME    = COSMOS 1844
OBJECT_ID      = 1987-041A
CENTER_NAME    = EARTH
REF_FRAME      = TEME
TIME_SYSTEM    = UTC
MEAN_ELEMENT_THEORY = SGP/SGP4

EPOCH          = 2026-03-01T03:02:24.842688
MEAN_MOTION    = 14.14553150
ECCENTRICITY   = .0029556
INCLINATION    = 70.8991
RA_OF_ASC_NODE = 52.2367
ARG_OF_PERICENTER = 30.9389
MEAN_ANOMALY   = 329.3466

EPHEMERIS_TYPE = 0
CLASSIFICATION_TYPE = U
NORAD_CAT_ID   = 17973
ELEMENT_SET_NO = 999
REV_AT_EPOCH   = 237
BSTAR          = .6291E-5
MEAN_MOTION_DOT = -.36E-6
MEAN_MOTION_DDOT = 0

